#aV2015  7 29  0  0  0.00000000     288 DD+AD WGS84 FIT  NGA
## 1855 259200.00000000   300.00000000 57232 0.0000000000000
+   31     1  2  3  4  5  6  7  9 10 11 12 13 14 15 16 17 18
+         19 20 21 22 23 24 25 26 27 28 29 30 31 32  0  0  0
+          0  0  0  0  0  0  0  0  0  0  0  0  0  0  0  0  0
+          0  0  0  0  0  0  0  0  0  0  0  0  0  0  0  0  0
+          0  0  0  0  0  0  0  0  0  0  0  0  0  0  0  0  0
++         2  2  2  2  2  2  2  2  2  2  2  2  2  2  2  2  2
++         2  2  2  2  2  2  2  2  2  2  2  2  2  2  0  0  0
++         0  0  0  0  0  0  0  0  0  0  0  0  0  0  0  0  0
++         0  0  0  0  0  0  0  0  0  0  0  0  0  0  0  0  0
++         0  0  0  0  0  0  0  0  0  0  0  0  0  0  0  0  0
%c cc cc ccc ccc cccc cccc cccc cccc ccccc ccccc ccccc ccccc
%c cc cc ccc ccc cccc cccc cccc cccc ccccc ccccc ccccc ccccc
%f  0.0000000  0.000000000  0.00000000000  0.000000000000000
%f  0.0000000  0.000000000  0.00000000000  0.000000000000000
%i    0    0    0    0      0      0      0      0         0
%i    0    0    0    0      0      0      0      0         0
/*      NGA, ST. LOUIS,MO.                                  
/*   EPHEMERIS COMPUTED FROM  1 DAYS OF DATA                
/*   EPOCHA SMOOTHER                                       
/* CCCCCCCCCCCCCCCCCCCCCCCCCCCCCCCCCCCCCCCCCCCCCCCCCCCCCCCCC
*  2015  7 29  4  0  0.00000000
P  1 -13483.708876  22744.658480   -791.672075     -2.146982                    
V  1  -2976.380393   -744.185347  31913.687700      0.005985                    
P  2  18411.841672  -7026.636843 -17219.205030    581.025275                    
V  2  -9229.847341  21020.228050 -18493.782227      0.021673                    
P  3 -11941.847744  13421.481698 -19557.637191     11.852982                    
V  3 -24822.424114  -1883.222064  13823.996371      0.033935                    
P  4 -17313.777024  18247.276088   7760.856922     -5.253669                    
V  4   2260.707826 -10744.888700  29318.456608     -0.033202                    
P  5  26130.044949  -2759.733793   4472.429284   -212.667382                    
V  5   5668.827956   3162.000052 -30622.768730      0.042623                    
P  6  13788.408825   6471.452181 -21761.375561     26.408599                    
V  6 -14227.986774  23673.050056  -1982.068560      0.080037                    
P  7  -2736.490737  22153.592803  14202.851407    477.053996                    
V  7 -11572.254704  13928.283204 -24521.122647      0.020611                    
P  9   5951.482057  24212.056990  -9134.397453     -9.429952                    
V  9  -7944.613586  -8876.374793 -28734.825609     -0.015721                    
P 10  21430.659619  10066.020116 -12845.741818   -184.387728                    
V 10 -15637.990374   1857.058091 -25001.710227     -0.015909                    
P 11 -10513.660196  23102.637107   7087.189282   -594.383051                    
V 11  -2730.842454 -10587.948902  28424.189475     -0.024312                    
P 12  14920.032113 -11319.470105 -18849.780754    314.058629                    
V 12  23579.686680   2821.350129  17270.382630      0.033446                    
P 13  15486.538238   -591.597960  21419.775801   -136.273632                    
V 13   9843.280192  25678.801148  -6481.230666     -0.033264                    
P 14 -14728.874564 -20966.645688  -7044.043634     45.622722                    
V 14  -1551.629922  -9423.458001  30066.378468     -0.026898                    
P 15  10364.122473 -12637.943359  20797.066633   -263.064515                    
V 15  14731.564296  22385.715950   6557.440702     -0.020936                    
P 16 -26383.391213    448.385793   4367.201397   -103.456674                    
V 16  -5411.645957  -2051.488755 -31522.865688      0.041384                    
P 17  15786.912356  19757.912286  -8156.108554   -182.010498                    
V 17   2743.729835  10560.291223  29598.313745     -0.015313                    
P 18  -8645.914826 -15413.415720  20404.151943    421.044212                    
V 18  24873.213613   -951.562556   9781.477053      0.030904                    
P 19 -11805.096917   9752.661883  21441.905133   -517.034751                    
V 19 -11493.903464 -25268.929485   5567.791544     -0.009152                    
P 20  15275.591990 -13493.494019  16925.628322    342.381878                    
V 20  21946.745988   1266.848162 -18547.315028      0.032030                    
P 21  -1298.111383 -21385.511196  16186.397095   -467.597083                    
V 21  11975.702902 -15571.534238 -20862.224596     -0.031045                    
P 22 -20668.662947 -10315.111687  13500.094077    375.842093                    
V 22  16800.668446  -2845.572571  23796.506695      0.036166                    
P 23  -4538.500148  18725.505221 -17923.460785   -123.867427                    
V 23 -12869.236894 -19525.761134 -17424.802541     -0.023196                    
P 24  14663.264461 -21942.756253   2114.464882     -2.087040                    
V 24   1349.551005   3976.480549  31530.841646     -0.006273                    
P 25    802.223250 -14862.801952 -22097.710417    -18.664792                    
V 25  27748.722314    821.524663    614.966026     -0.046316                    
P 26 -25405.960695  -4816.479523  -6082.297247    -16.318577                    
V 26   7770.533316  -2550.363505 -30476.303861     -0.067610                    
P 27 -16939.617575  -1716.879620  20391.138065      7.793089                    
V 27 -11660.187921 -23136.807913 -11502.928382      0.028241                    
P 28  16630.315988  12816.070270  16938.636857    456.822324                    
V 28 -20245.973257   -933.792561  21294.678976      0.025803                    
P 29  -3130.502049 -23993.927976 -10988.812732    625.067204                    
V 29   7832.288125  11713.046787 -27723.856551      0.021624                    
P 30   6270.860589  15880.612465  20319.090384     -4.496342                    
V 30 -15951.450454  20374.003083 -11073.624889      0.074301                    
P 31 -14642.734946  -4418.915242 -21619.191061    308.260316                    
V 31  15008.737710 -23255.608681  -5053.756250     -0.012767                    
P 32 -22703.846950   6135.782125 -11827.247523    -87.359210                    
V 32 -14783.988612  -4726.759363  26529.726181      0.102770                    
EOF
